OUFTI-1                 
1 41458U 16025C   22200.44425179  .00019815  00000+0  81976-3 0  9995
2 41458  98.1892   9.4786 0140903 155.8790 204.9125 15.15291610342426
E-ST@R-II               
1 41459U 16025D   22200.54949443  .00017195  00000+0  72928-3 0  9998
2 41459  98.1887   8.0944 0144328 160.0657 200.6323 15.14133104342354
AAUSAT 4                
1 41460U 16025E   22200.73474659  .00027910  00000+0  10343-2 0  9991
2 41460  98.1808  14.7933 0124211 134.6612 226.4840 15.20558120342848
AIST-2D (RS-48)         
1 41465U 16026B   22200.25969961  .00013091  00000+0  30708-3 0  9992
2 41465  97.0527  75.5431 0010141  28.0973 111.4288 15.42123939348439
NUSAT-1 (FRESCO)        
1 41557U 16033B   22200.51227231  .00013082  00000+0  38260-3 0  9999
2 41557  97.3901 298.2794 0009026 259.9325 155.3504 15.35357346342303
NUSAT-2 (BATATA)        
1 41558U 16033C   22200.50126363  .00012739  00000+0  35093-3 0  9992
2 41558  97.4107 304.1478 0008768 247.0501 173.7027 15.37240299342578
CARTOSAT-2C             
1 41599U 16040A   22200.41477116  .00003821  00000+0  18450-3 0  9990
2 41599  97.4850 259.7364 0015057  74.0653 342.5818 15.19172910336786
SATHYABAMASAT           
1 41600U 16040B   22200.39351119  .00020509  00000+0  62864-3 0  9994
2 41600  97.2175 252.0699 0010748  16.3545 343.8043 15.33751900337799
LAPAN-A3                
1 41603U 16040E   22200.61725729  .00001528  00000+0  72209-4 0  9999
2 41603  97.2039 236.2421 0014672  51.7987  65.9441 15.20751676336925
BIROS                   
1 41604U 16040F   22200.42649269  .00003972  00000+0  16389-3 0  9994
2 41604  97.2085 243.6305 0012302  28.6674 331.5238 15.24538640337334
SWAYAM                  
1 41607U 16040J   22200.36317588  .00018484  00000+0  58439-3 0  9992
2 41607  97.2128 250.2702 0010805  18.2394 341.9234 15.32786461337662
BEESAT-4                
1 41619U 16040W   22200.39234011  .00016576  00000+0  53922-3 0  9999
2 41619  97.2142 250.1799 0009131  14.6059 345.5445 15.31910441325616
3CAT-2                  
1 41732U 16051B   22200.27423933  .00011409  00000+0  34716-3 0  9997
2 41732  97.3825 123.3575 0010973 166.8697 344.0900 15.34120663330201
PRATHAM                 
1 41783U 16059A   22200.35918169  .00000486  00000+0  10208-3 0  9993
2 41783  97.9113 240.6330 0034790  74.0170 286.4860 14.63383922310295
ALSAT 1N                
1 41789U 16059G   22200.79961468  .00000576  00000+0  11611-3 0  9996
2 41789  97.9151 245.7027 0029426  56.1820 304.2170 14.64722199310607
LISHUI 1-01             
1 41845U 16066E   22200.90187784  .00029678  00000+0  29465-2 0  9990
2 41845  98.7405 334.5698 0211316 326.2724  32.5300 14.76435664301615
CARTOSAT-2D             
1 41948U 17008A   22200.43750922  .00003467  00000+0  16741-3 0  9991
2 41948  97.4633 259.7188 0006273 199.0210 161.0804 15.19311289300654
NAYIF-1 (EO-88)         
1 42017U 17008BX  22200.44052127  .00019696  00000+0  57137-3 0  9997
2 42017  97.2666 266.1055 0006503 124.5055 235.6803 15.35538989301987
ZHUHAI-1 02 (CAS-4B)    
1 42759U 17034B   22200.36066244  .00003161  00000+0  19312-3 0  9998
2 42759  43.0159 156.8022 0007810 133.6138   0.8890 15.12090431281187
ZHUHAI-1 01 (CAS-4A)    
1 42761U 17034D   22200.39645611  .00003332  00000+0  20242-3 0  9999
2 42761  43.0164 155.3714 0008153 137.2584   7.4661 15.12178222281199
UCLSAT                  
1 42765U 17036A   22200.36881975  .00013439  00000+0  45844-3 0  9991
2 42765  97.1949 242.0427 0008690 198.3030 161.7900 15.30425964282738
NIUSAT                  
1 42766U 17036B   22200.38288750  .00010376  00000+0  39521-3 0  9998
2 42766  97.1995 237.0689 0012703 206.2803 153.7793 15.26828293281671
CARTOSAT-2E             
1 42767U 17036C   22200.74651475  .00003533  00000+0  17048-3 0  9994
2 42767  97.4527 260.8269 0005771 263.4681 244.7099 15.19320218281261
LITUANICASAT-2          
1 42768U 17036D   22200.38383712  .00031700  00000+0  87430-3 0  9990
2 42768  97.2031 245.0751 0010683 180.3000 179.8240 15.36986557282159
AALTO-1                 
1 42775U 17036L   22200.37144849  .00008066  00000+0  31581-3 0  9998
2 42775  97.1953 236.9271 0011650 205.1737 154.8935 15.25994907281646
URSA MAIOR              
1 42776U 17036M   22200.34037775  .00008503  00000+0  32687-3 0  9999
2 42776  97.1966 237.6574 0011333 203.6699 156.4020 15.26592714281670
COMPASS 2               
1 42777U 17036N   22200.80323272  .00023983  00000+0  73974-3 0  9994
2 42777  97.2022 244.6998 0009531 183.2311 176.8872 15.33534794282106
MAX VALIER SAT          
1 42778U 17036P   22200.55965985  .00010030  00000+0  37523-3 0  9999
2 42778  97.2027 240.5626 0010051 201.8148 158.2665 15.27459692281805
PEGASUS                 
1 42784U 17036V   22200.04829456  .00012125  00000+0  42612-3 0  9994
2 42784  97.1965 240.9642 0009326 204.0287 156.0520 15.29472606281848
NUDTSAT                 
1 42787U 17036Y   22200.58494929  .00020568  00000+0  61202-3 0  9995
2 42787  97.2007 245.8255 0008400 186.1748 173.9401 15.34713771282021
SUCHAI                  
1 42788U 17036Z   22200.07188493  .00015075  00000+0  49897-3 0  9999
2 42788  97.1971 242.7057 0008875 196.8475 163.2474 15.31373523282024
SKCUBE                  
1 42789U 17036AA  22200.08461155  .00013248  00000+0  45013-3 0  9996
2 42789  97.1970 242.1490 0008854 198.5383 161.5537 15.30556271281913
VZLUSAT-1               
1 42790U 17036AB  22200.39991997  .00022689  00000+0  67832-3 0  9996
2 42790  97.1996 245.6076 0008203 185.7132 174.4019 15.34547206282145
ROBUSTA-1B              
1 42792U 17036AD  22200.35616853  .00015230  00000+0  50806-3 0  9996
2 42792  97.1969 242.9979 0008464 196.5708 163.5259 15.31123006282002
D-SAT                   
1 42794U 17036AF  22200.45628626  .00002913  00000+0  24882-3 0  9999
2 42794  97.4510 204.1784 0122159 338.8171  20.8014 14.92793010276254
NORSAT 2                
1 42828U 17042D   22200.33122175  .00002373  00000+0  23350-3 0  9998
2 42828  97.4271  54.9072 0012377 256.2510 103.7332 14.92934285272922
TECHNOSAT               
1 42829U 17042E   22200.34440208  .00001424  00000+0  14572-3 0  9992
2 42829  97.4183  52.6179 0012390 260.1631  99.8190 14.91931031272844
2017-042F               
1 42830U 17042F   22200.38783717  .00004827  00000+0  44331-3 0  9999
2 42830  97.4322  57.2458 0011833 247.5091 112.4878 14.95216665273054
FLYING LAPTOP           
1 42831U 17042G   22200.52399605  .00000545  00000+0  59058-4 0  9991
2 42831  97.4195  53.1126 0012356 259.7619 100.2241 14.91833774272872
CORVUS BC2              
1 42846U 17042X   22200.38631668  .00001020  00000+0  10321-3 0  9997
2 42846  97.4200  55.8845 0007866 246.4915 113.5479 14.92965129273045
CORVUS BC1              
1 42847U 17042Y   22200.33064170  .00001191  00000+0  11942-3 0  9990
2 42847  97.4203  56.1434 0007544 245.2068 114.8368 14.93068448273046
SIMPL                   
1 42983U 98067NF  22199.72873755  .00721007  33852-3  42644-3 0  9997
2 42983  51.6235  13.1119 0006944 293.9654  66.0636 16.17938595269960
CZ-4C R/B               
1 43012U 17072C   22200.35671398  .00000218  00000+0  55938-4 0  9999
2 43012  98.6954 237.8426 0126469 219.5388 139.6531 14.56364462248507
RADFXSAT (FOX-1B)       
1 43017U 17073E   22200.18452215  .00005181  00000+0  38689-3 0  9998
2 43017  97.6712  93.0769 0249646  83.9659 278.9941 14.81586190251814
EAGLESAT 1              
1 43018U 17073F   22200.48367743  .00009789  00000+0  70039-3 0  9996
2 43018  97.6743  95.2504 0241975  76.6668 286.1403 14.83954089251841
INS-1C                  
1 43116U 18004F   22200.09669013  .00013567  00000+0  46069-3 0  9997
2 43116  97.3747 275.9034 0006493 230.8949 129.1715 15.30593143251177
FLOCK 3P'-3             
1 43119U 18004J   22200.47051769  .00006450  00000+0  24283-3 0  9992
2 43119  97.3735 274.1611 0007570 244.4669 115.5788 15.27429406251104
FLOCK 3P'-2             
1 43120U 18004K   22200.48628699  .00007365  00000+0  28025-3 0  9991
2 43120  97.3741 273.7729 0007341 246.9347 113.1119 15.27025727251070
FLOCK 3P'-1             
1 43121U 18004L   22200.18406905  .00033867  00000+0  90591-3 0  9996
2 43121  97.3762 278.8457 0006078 214.5096 145.5755 15.37962625251316
FLOCK 3P'-4             
1 43122U 18004M   22200.47252315  .00007175  00000+0  27308-3 0  9992
2 43122  97.3748 273.9315 0007273 248.9796 111.0665 15.27027204251071
MICROMAS-2A             
1 43131U 18004W   22200.45129739  .00032697  00000+0  88627-3 0  9991
2 43131  97.3742 279.8310 0005362 218.8871 141.1988 15.37564428251495
PICSAT                  
1 43132U 18004X   22200.17658697  .00016462  00000+0  53196-3 0  9996
2 43132  97.3706 276.3936 0006200 236.4839 123.5811 15.32153048251265
CNUSAIL-1               
1 43133U 18004Y   22199.71609047  .00008941  00000+0  31896-3 0  9995
2 43133  97.3663 273.7694 0006663 245.9650 114.0893 15.29094114251077
2018-004Z               
1 43134U 18004Z   22200.46518141  .00014133  00000+0  47628-3 0  9995
2 43134  97.3690 275.8947 0006335 238.1437 121.9188 15.30830815251257
FOX-1D (AO-92)          
1 43137U 18004AC  22200.47678220  .00013004  00000+0  45092-3 0  9993
2 43137  97.3671 275.3539 0006157 240.6009 119.4617 15.29924183251244
STEP CUBE LAB           
1 43138U 18004AD  22200.48284450  .00026118  00000+0  75922-3 0  9998
2 43138  97.3740 279.1533 0005535 227.9300 132.1473 15.35424813251456
XIAOXIANG-2             
1 43155U 18008A   22200.52461280  .00007145  00000+0  37684-3 0  9996
2 43155  97.3509 257.8954 0017045  38.6283  68.5861 15.15730443248135
ZHOU ENLAI              
1 43156U 18008B   22200.54987172  .00007857  00000+0  41670-3 0  9992
2 43156  97.3557 257.8046 0014363  40.4755  97.0071 15.15536740248062
QUANTUTONG 1            
1 43158U 18008D   22200.41002495  .00006774  00000+0  37122-3 0  9990
2 43158  97.3504 255.5816 0013942  41.0449  22.8114 15.14431549247945
